ADRAS-J                 
1 58992U 24034A   24215.51628850  .00004321  00000+0  39901-3 0  9999
2 58992  98.2144 190.6618 0041963 255.8552 103.8003 14.94534643 24788
